[{"OBJECT_NAME":"STARLINK-35694","OBJECT_ID":"2025-257K","EPOCH":"2026-03-09T16:04:04.417248","MEAN_MOTION":15.30200096,"ECCENTRICITY":0.00012687,"INCLINATION":53.1607,"RA_OF_ASC_NODE":216.8869,"ARG_OF_PERICENTER":78.5683,"MEAN_ANOMALY":281.546,"EPHEMERIS_TYPE":0,"CLASSIFICATION_TYPE":"U","NORAD_CAT_ID":66389,"ELEMENT_SET_NO":999,"REV_AT_EPOCH":1973,"BSTAR":0.00083579024,"MEAN_MOTION_DOT":0.00024476,"MEAN_MOTION_DDOT":0},{"OBJECT_NAME":"COSMOS 2251 DEB","OBJECT_ID":"1993-036BN","EPOCH":"2026-03-09T17:54:27.582912","MEAN_MOTION":15.31852549,"ECCENTRICITY":0.0043021,"INCLINATION":74.0291,"RA_OF_ASC_NODE":318.0178,"ARG_OF_PERICENTER":323.0874,"MEAN_ANOMALY":36.7369,"EPHEMERIS_TYPE":0,"CLASSIFICATION_TYPE":"U","NORAD_CAT_ID":33821,"ELEMENT_SET_NO":999,"REV_AT_EPOCH":76330,"BSTAR":0.0011195846,"MEAN_MOTION_DOT":0.00035571,"MEAN_MOTION_DDOT":0}]
